NORAD_CAT_ID,OBJECT_NAME,OBJECT_TYPE,EPOCH,MEAN_MOTION,ECCENTRICITY,INCLINATION,RA_OF_ASC_NODE,ARG_OF_PERICENTER,MEAN_ANOMALY,BSTAR,MEAN_MOTION_DOT,MEAN_MOTION_DDOT,TLE_LINE0,TLE_LINE1,TLE_LINE2,SEMIMAJOR_AXIS,PERIOD,APOGEE,PERIGEE,DECAYED
54769.0,STARLINK-5404,PAYLOAD,2024-04-02 19:16:18,15.08832826,0.0001191,53.2177,333.0034,87.8372,272.2757,-8.3014e-05,-1.608e-05,0.0,0 STARLINK-5404,1 54769U 22175M   24093.80299532 -.00001608  00000-0 -83014-4 0  9991,2 54769  53.2177 333.0034 0001191  87.8372 272.2757 15.08832826 71194,6917.902,95.438,540.591,538.943,0.0
54769.0,STARLINK-5404,PAYLOAD,2024-04-02 22:27:04,15.08839089,0.0001287,53.2176,332.4071,98.3747,261.7392,7.3204e-05,8.77e-06,0.0,0 STARLINK-5404,1 54769U 22175M   24093.93547387  .00000877  00000-0  73204-4 0  9994,2 54769  53.2176 332.4071 0001287  98.3747 261.7392 15.08839089 73374,6917.883,95.438,540.639,538.858,0.0
54769.0,STARLINK-5404,PAYLOAD,2024-04-03 22:17:52,15.08847027,0.0001227,53.2176,327.9489,92.1953,267.918,0.00061965,9.589e-05,0.0,0 STARLINK-5404,1 54769U 22175M   24094.92907558  .00009589  00000-0  61965-3 0  9993,2 54769  53.2176 327.9489 0001227  92.1953 267.9180 15.08847027 73522,6917.859,95.437,540.573,538.875,0.0
54769.0,STARLINK-5404,PAYLOAD,2024-04-04 22:08:38,15.08847773,0.0001192,53.2172,323.4882,90.8028,269.3101,0.00026016,3.856e-05,0.0,0 STARLINK-5404,1 54769U 22175M   24095.92267290  .00003856  00000-0  26016-3 0  9995,2 54769  53.2172 323.4882 0001192  90.8028 269.3101 15.08847773 71519,6917.857,95.437,540.546,538.897,0.0
54769.0,STARLINK-5404,PAYLOAD,2024-04-05 07:40:57,15.08854878,0.0001171,53.2171,321.7037,89.9378,270.1749,0.00034654,5.234e-05,0.0,0 STARLINK-5404,1 54769U 22175M   24096.32010856  .00005234  00000-0  34654-3 0  9993,2 54769  53.2171 321.7037 0001171  89.9378 270.1749 15.08854878 73733,6917.835,95.437,540.51,538.89,0.0
54769.0,STARLINK-5404,PAYLOAD,2024-04-05 20:24:02,15.08839388,0.0001561,53.2187,319.3295,106.9995,253.1169,-3.1104e-05,-7.83e-06,0.0,0 STARLINK-5404,1 54769U 22175M   24096.85003310 -.00000783  00000-0 -31104-4 0  9992,2 54769  53.2187 319.3295 0001561 106.9995 253.1169 15.08839388 71652,6917.882,95.438,540.827,538.667,0.0
54769.0,STARLINK-5404,PAYLOAD,2024-04-06 13:53:17,15.08845929,0.0001404,53.2173,316.0595,111.6959,248.4183,0.00014556,2.03e-05,0.0,0 STARLINK-5404,1 54769U 22175M   24097.57866902  .00002030  00000-0  14556-3 0  9992,2 54769  53.2173 316.0595 0001404 111.6959 248.4183 15.08845929 73926,6917.862,95.437,540.699,538.756,0.0
54769.0,STARLINK-5404,PAYLOAD,2024-04-06 21:50:13,15.0883162,0.0001278,53.2172,314.5705,99.7695,260.3441,-0.0001049,-1.957e-05,0.0,0 STARLINK-5404,1 54769U 22175M   24097.90987624 -.00001957  00000-0 -10490-3 0  9996,2 54769  53.2172 314.5705 0001278  99.7695 260.3441 15.08831620 73971,6917.906,95.438,540.655,538.887,0.0
54769.0,STARLINK-5404,PAYLOAD,2024-04-07 07:22:31,15.08840254,0.0001421,53.2167,312.7848,92.855,267.2604,5.3271e-05,5.6e-06,0.0,0 STARLINK-5404,1 54769U 22175M   24098.30731440  .00000560  00000-0  53271-4 0  9996,2 54769  53.2167 312.7848 0001421  92.8550 267.2604 15.08840254 71874,6917.88,95.438,540.728,538.762,0.0
54769.0,STARLINK-5404,PAYLOAD,2024-04-07 21:41:00,15.08836838,0.0001287,53.2166,310.1071,93.6779,266.436,7.5973e-05,9.21e-06,0.0,0 STARLINK-5404,1 54769U 22175M   24098.90347766  .00000921  00000-0  75973-4 0  9990,2 54769  53.2166 310.1071 0001287  93.6779 266.4360 15.08836838 74129,6917.89,95.438,540.645,538.865,0.0
54769.0,STARLINK-5404,PAYLOAD,2024-04-08 07:13:19,15.0884044,0.0001321,53.2167,308.3222,97.4628,262.6515,0.000313,4.697e-05,0.0,0 STARLINK-5404,1 54769U 22175M   24099.30091741  .00004697  00000-0  31300-3 0  9993,2 54769  53.2167 308.3222 0001321  97.4628 262.6515 15.08840440 74181,6917.879,95.438,540.658,538.83,0.0
54769.0,STARLINK-5404,PAYLOAD,2024-04-08 21:31:47,15.08840859,0.0001293,53.2187,305.6448,84.3736,275.7404,0.00011602,1.559e-05,0.0,0 STARLINK-5404,1 54769U 22175M   24099.89707792  .00001559  00000-0  11602-3 0  9994,2 54769  53.2187 305.6448 0001293  84.3736 275.7404 15.08840859 72113,6917.878,95.438,540.637,538.848,0.0
54769.0,STARLINK-5404,PAYLOAD,2024-04-08 23:07:10,15.08841587,0.0001273,53.2182,305.3471,87.0697,273.0441,0.00012533,1.707e-05,0.0,0 STARLINK-5404,1 54769U 22175M   24099.96331734  .00001707  00000-0  12533-3 0  9990,2 54769  53.2182 305.3471 0001273  87.0697 273.0441 15.08841587 74286,6917.876,95.437,540.621,538.86,0.0
54769.0,STARLINK-5404,PAYLOAD,2024-04-09 07:04:06,15.0884733,0.0001296,53.2182,303.861,84.696,275.418,0.00017791,2.545e-05,0.0,0 STARLINK-5404,1 54769U 22175M   24100.29451402  .00002545  00000-0  17791-3 0  9996,2 54769  53.2182 303.8610 0001296  84.6960 275.4180 15.08847330 74339,6917.858,95.437,540.62,538.826,0.0
54769.0,STARLINK-5404,PAYLOAD,2024-04-09 19:47:11,15.08841054,0.0001428,53.2189,301.4836,82.6618,277.4536,9.7948e-05,1.271e-05,0.0,0 STARLINK-5404,1 54769U 22175M   24100.82443774  .00001271  00000-0  97948-4 0  9996,2 54769  53.2189 301.4836 0001428  82.6618 277.4536 15.08841054 74418,6917.877,95.437,540.73,538.754,0.0
54769.0,STARLINK-5404,PAYLOAD,2024-04-10 06:54:53,15.08842142,0.0001434,53.2193,299.3997,90.9982,269.1174,4.7715e-05,4.72e-06,0.0,0 STARLINK-5404,1 54769U 22175M   24101.28811658  .00000472  00000-0  47715-4 0  9996,2 54769  53.2193 299.3997 0001434  90.9982 269.1174 15.08842142 72322,6917.874,95.437,540.731,538.747,0.0
54769.0,STARLINK-5404,PAYLOAD,2024-04-10 22:48:44,15.08845951,0.0001207,53.2181,296.4277,79.4716,280.6412,5.7254e-05,6.24e-06,0.0,0 STARLINK-5404,1 54769U 22175M   24101.95051480  .00000624  00000-0  57254-4 0  9997,2 54769  53.2181 296.4277 0001207  79.4716 280.6412 15.08845951 74587,6917.862,95.437,540.562,538.892,0.0
54769.0,STARLINK-5404,PAYLOAD,2024-04-11 19:28:45,15.08839642,0.000124,53.217,292.5605,88.2146,271.8988,0.00010237,1.342e-05,0.0,0 STARLINK-5404,1 54769U 22175M   24102.81163856  .00001342  00000-0  10237-3 0  9991,2 54769  53.2170 292.5605 0001240  88.2146 271.8988 15.08839642 72554,6917.881,95.438,540.604,538.889,0.0
54769.0,STARLINK-5404,PAYLOAD,2024-04-11 22:39:31,15.08847075,0.0001549,53.2168,291.9656,92.5816,267.5353,-1.8382e-05,-5.81e-06,0.0,0 STARLINK-5404,1 54769U 22175M   24102.94411701 -.00000581  00000-0 -18382-4 0  9996,2 54769  53.2168 291.9656 0001549  92.5816 267.5353 15.08847075 74733,6917.859,95.437,540.795,538.652,0.0
54769.0,STARLINK-5404,PAYLOAD,2024-04-13 17:34:56,15.08840163,0.0001205,53.2171,283.9348,85.8374,274.2756,4.8285e-05,4.81e-06,0.0,0 STARLINK-5404,1 54769U 22175M   24104.73260117  .00000481  00000-0  48285-4 0  9990,2 54769  53.2171 283.9348 0001205  85.8374 274.2756 15.08840163 75003,6917.88,95.438,540.578,538.911,0.0
54769.0,STARLINK-5404,PAYLOAD,2024-04-14 19:01:07,15.08839681,0.0001192,53.2169,279.1764,95.0944,265.0184,0.00010426,1.372e-05,0.0,0 STARLINK-5404,1 54769U 22175M   24105.79244244  .00001372  00000-0  10426-3 0  9995,2 54769  53.2169 279.1764 0001192  95.0944 265.0184 15.08839681 73004,6917.881,95.438,540.571,538.922,0.0
54769.0,STARLINK-5404,PAYLOAD,2024-04-15 10:54:58,15.08839908,0.0001178,53.2169,276.2038,94.4917,265.621,8.5137e-05,1.067e-05,0.0,0 STARLINK-5404,1 54769U 22175M   24106.45484368  .00001067  00000-0  85137-4 0  9995,2 54769  53.2169 276.2038 0001178  94.4917 265.6210 15.08839908 75261,6917.881,95.438,540.561,538.931,0.0
54769.0,STARLINK-5404,PAYLOAD,2024-04-16 10:45:45,15.08848517,0.0001516,53.2164,271.7485,78.3425,281.7737,0.00019203,2.77e-05,0.0,0 STARLINK-5404,1 54769U 22175M   24107.44843791  .00002770  00000-0  19203-3 0  9996,2 54769  53.2164 271.7485 0001516  78.3425 281.7737 15.08848517 73259,6917.854,95.437,540.768,538.671,0.0
54769.0,STARLINK-5404,PAYLOAD,2024-04-16 17:07:17,15.08849762,0.0001481,53.2165,270.5556,83.4436,276.6725,0.00022027,3.22e-05,0.0,0 STARLINK-5404,1 54769U 22175M   24107.71339761  .00003220  00000-0  22027-3 0  9992,2 54769  53.2165 270.5556 0001481  83.4436 276.6725 15.08849762 75453,6917.851,95.437,540.74,538.691,0.0
54769.0,STARLINK-5404,PAYLOAD,2024-04-17 13:47:21,15.08805152,0.0001538,53.2166,266.6907,78.5875,281.529,-0.00029802,-5.023e-05,0.0,0 STARLINK-5404,1 54769U 22175M   24108.57455456 -.00005023  00000-0 -29802-3 0  9990,2 54769  53.2166 266.6907 0001538  78.5875 281.5290 15.08805152 73427,6917.987,95.44,540.916,538.788,0.0
54769.0,STARLINK-5404,PAYLOAD,2024-04-17 16:58:06,15.08842444,0.0001337,53.2163,266.094,93.6056,266.5089,0.00025996,3.852e-05,0.0,0 STARLINK-5404,1 54769U 22175M   24108.70702111  .00003852  00000-0  25996-3 0  9994,2 54769  53.2163 266.0940 0001337  93.6056 266.5089 15.08842444 73447,6917.873,95.437,540.663,538.813,0.0
54769.0,STARLINK-5404,PAYLOAD,2024-04-18 10:27:20,15.08851294,0.000124,53.2162,262.8227,94.6319,265.4814,0.00037541,5.694e-05,0.0,0 STARLINK-5404,1 54769U 22175M   24109.43565751  .00005694  00000-0  37541-3 0  9997,2 54769  53.2162 262.8227 0001240  94.6319 265.4814 15.08851294 75713,6917.846,95.437,540.569,538.853,0.0
54769.0,STARLINK-5404,PAYLOAD,2024-04-18 16:48:53,15.08859018,0.000141,53.2158,261.6341,97.165,262.9502,0.00068102,0.00010573,0.0,0 STARLINK-5404,1 54769U 22175M   24109.70061790  .00010573  00000-0  68102-3 0  9990,2 54769  53.2158 261.6341 0001410  97.1650 262.9502 15.08859018 75759,6917.822,95.436,540.663,538.712,0.0
54769.0,STARLINK-5404,PAYLOAD,2024-04-19 13:28:53,15.08843549,0.0001362,53.2162,257.7677,101.1067,259.0079,-0.00018543,-3.238e-05,0.0,0 STARLINK-5404,1 54769U 22175M   24110.56173264 -.00003238  00000-0 -18543-3 0  9992,2 54769  53.2162 257.7677 0001362 101.1067 259.0079 15.08843549 73729,6917.87,95.437,540.677,538.792,0.0
54769.0,STARLINK-5404,PAYLOAD,2024-04-19 16:39:39,15.08849927,0.0001583,53.2166,257.172,111.4279,248.6882,-4.8088e-05,-1.054e-05,0.0,0 STARLINK-5404,1 54769U 22175M   24110.69420956 -.00001054  00000-0 -48088-4 0  9991,2 54769  53.2166 257.1720 0001583 111.4279 248.6882 15.08849927 75904,6917.85,95.437,540.81,538.62,0.0
